ISS (ZARYA)             
1 25544U 98067A   26079.87218434  .00009590  00000+0  18573-3 0  9990
2 25544  51.6346  17.0785 0006366 213.2716 146.7873 15.48402839558062
POISK                   
1 36086U 09060A   26079.87218434  .00009590  00000+0  18573-3 0  9998
2 36086  51.6346  17.0785 0006366 213.2716 146.7873 15.48402839557828
CSS (TIANHE)            
1 48274U 21035A   26079.59211288  .00017890  00000+0  20859-3 0  9997
2 48274  41.4664 141.7960 0005638 341.7172  18.3464 15.61215573279311
ISS (NAUKA)             
1 49044U 21066A   26079.87218434  .00009590  00000+0  18573-3 0  9996
2 49044  51.6346  17.0785 0006366 213.2716 146.7873 15.48402839557860
FREGAT DEB              
1 49271U 11037PF  26079.80404795  .00014252  00000+0  20135-1 0  9991
2 49271  51.6498 267.3886 0963855  84.8727 286.1251 12.40526679214071
CSS (WENTIAN)           
1 53239U 22085A   26079.59211288  .00017890  00000+0  20859-3 0  9990
2 53239  41.4664 141.7960 0005638 341.7172  18.3464 15.61215573279318
CSS (MENGTIAN)          
1 54216U 22143A   26079.59211288  .00017890  00000+0  20859-3 0  9991
2 54216  41.4664 141.7960 0005638 341.7172  18.3464 15.61215573279314
TIANZHOU-9              
1 64786U 25149A   26079.59211288  .00017890  00000+0  20859-3 0  9993
2 64786  41.4664 141.7960 0005638 341.7172  18.3464 15.61215573279317
PROGRESS-MS 32          
1 65586U 25204A   26079.29132166  .00008293  00000+0  16183-3 0  9990
2 65586  51.6345  19.9496 0006354 211.1385 148.9228 15.48390544554509
YOTSUBA-KULOVER         
1 65941U 98067XN  26079.49958000  .00246449  00000+0  97022-3 0  9995
2 65941  51.6209   1.0064 0004963 149.9063 210.2227 15.85629123 25213
BOTAN                   
1 65943U 98067XQ  26079.50709339  .00237566  00000+0  96151-3 0  9990
2 65943  51.6238   1.0781 0005678 150.6448 209.4876 15.85072948 25210
HRC MONOBLOCK CAMERA    
1 66052U 98067XR  26079.50700654  .00041869  00000+0  45024-3 0  9995
2 66052  51.6296  10.8896 0003870 142.6228 217.5036 15.63304231 24081
